{"spkid": "20308242", "covariance": {"elements": [{"label": "e", "name": "e", "sigma": 7.51027668955492e-08, "value": ".3400048579443624", "title": "eccentricity", "units": null}, {"label": "q", "sigma": 5.60528237386999e-08, "name": "q", "units": "au", "value": ".4971045435567479", "title": "perihelion distance"}, {"name": "tp", "sigma": 1.63825665227917e-05, "units": "TDB", "title": "time of perihelion passage", "value": "2458581.391167795692", "label": "tp"}, {"sigma": 2.42312551945633e-06, "name": "om", "units": "deg", "value": "272.689550364817", "title": "longitude of the ascending node", "label": "node"}, {"value": "156.6310335512414", "title": "argument of perihelion", "units": "deg", "sigma": 1.50301516458484e-05, "name": "w", "label": "peri"}, {"label": "i", "name": "i", "sigma": 5.31460381329562e-06, "units": "deg", "title": "inclination", "value": "24.92845744669497"}], "data": [["5.640425595367201E-15", "-4.20905809439507E-15", "-1.172088514093256E-12", "1.666973677423568E-13", "-1.125371127413649E-12", "-2.787105125689623E-13"], ["-4.20905809439507E-15", "3.141919049081764E-15", "8.79559840555005E-13", "-1.241741971887397E-13", "8.392708728281058E-13", "2.076037700569515E-13"], ["-1.172088514093256E-12", "8.79559840555005E-13", "2.683884858736968E-10", "-3.337817682025019E-11", "2.315325208754001E-10", "5.569626171841335E-11"], ["1.666973677423568E-13", "-1.241741971887397E-13", "-3.337817682025019E-11", "5.871537283040527E-12", "-3.417716351999743E-11", "-1.184271561355519E-11"], ["-1.125371127413649E-12", "8.392708728281058E-13", "2.315325208754001E-10", "-3.417716351999743E-11", "2.259054584971991E-10", "5.929130233019914E-11"], ["-2.787105125689623E-13", "2.076037700569515E-13", "5.569626171841335E-11", "-1.184271561355519E-11", "5.929130233019914E-11", "2.824501369229633E-11"]], "labels": ["e", "q", "tp", "node", "peri", "i"], "epoch": "2458465.5"}, "elements": [{"units": null, "title": "eccentricity", "value": ".3398784441847057", "sigma": "7.5087E-8", "name": "e", "label": "e"}, {"label": "a", "value": ".7532600546266346", "title": "semi-major axis", "units": "au", "sigma": "1.6613E-9", "name": "a"}, {"value": ".4972431991936476", "title": "perihelion distance", "units": "au", "sigma": "5.6037E-8", "name": "q", "label": "q"}, {"label": "i", "value": "24.92725987484871", "title": "inclination; angle with respect to x-y ecliptic plane", "units": "deg", "sigma": "5.3143E-6", "name": "i"}, {"title": "longitude of the ascending node", "value": "272.6688732981203", "units": "deg", "sigma": "2.4193E-6", "name": "om", "label": "node"}, {"label": "peri", "title": "argument of perihelion", "value": "156.6466486786462", "units": "deg", "name": "w", "sigma": "1.5027E-5"}, {"sigma": "2.5809E-5", "name": "ma", "units": "deg", "title": "mean anomaly", "value": "348.8206440063541", "label": "M"}, {"label": "tp", "name": "tp", "sigma": "1.7127E-5", "value": "2461207.915323772204", "title": "time of perihelion passage", "units": "TDB"}, {"title": "sidereal orbital period", "value": "238.7898336461261", "units": "d", "sigma": "7.8998E-7", "name": "per", "label": "period"}, {"label": "n", "value": "1.507601871080915", "title": "mean motion", "units": "deg/d", "name": "n", "sigma": "4.9876E-9"}, {"label": "Q", "units": "au", "value": "1.009276910059622", "title": "aphelion distance", "sigma": "2.226E-9", "name": "ad"}], "epoch": "2461200.5"}